{
  "type": "FeatureCollection",
  "features": [
    {
      "type": "Feature",
      "properties": {
        "norad_id": 40069,
        "name": "METEOR-M 2",
        "group": "weather",
        "lat": -33.33172586897258,
        "lon": 138.73474147286686,
        "alt_km": 823.2250782242936,
        "timestamp": "2025-12-12T18:57:43.774873+00:00",
        "meta_object_name": "METEOR-M 2",
        "meta_object_id": "2014-037A",
        "meta_epoch": "2025-12-12T06:08:01.679136",
        "meta_mean_motion": 14.21386268,
        "meta_eccentricity": 0.00049487,
        "meta_inclination": 98.4905,
        "meta_ra_of_asc_node": 323.8586,
        "meta_arg_of_pericenter": 211.5485,
        "meta_mean_anomaly": 148.5397,
        "meta_ephemeris_type": 0,
        "meta_classification_type": "U",
        "meta_norad_cat_id": 40069,
        "meta_element_set_no": 999,
        "meta_rev_at_epoch": 59276,
        "meta_bstar": 0.00012462725,
        "meta_mean_motion_dot": 2.3e-06,
        "meta_mean_motion_ddot": 0,
        "tle_line1": "1 40069U 14037A   25346.25557499  .00000230  00000+0  12463-3 0  9993",
        "tle_line2": "2 40069  98.4905 323.8586 0004948 211.5485 148.5397 14.21386268592769"
      },
      "geometry": {
        "type": "Point",
        "coordinates": [
          138.73474147286686,
          -33.33172586897258
        ]
      }
    },
    {
      "type": "Feature",
      "properties": {
        "norad_id": 40267,
        "name": "HIMAWARI-8",
        "group": "weather",
        "lat": -0.018046565447697248,
        "lon": 146.79915059716282,
        "alt_km": 35791.35380331436,
        "timestamp": "2025-12-12T18:57:43.774886+00:00",
        "meta_object_name": "HIMAWARI-8",
        "meta_object_id": "2014-060A",
        "meta_epoch": "2025-12-12T05:35:19.004640",
        "meta_mean_motion": 1.00270039,
        "meta_eccentricity": 0.00012109,
        "meta_inclination": 0.0353,
        "meta_ra_of_asc_node": 190.2834,
        "meta_arg_of_pericenter": 114.4453,
        "meta_mean_anomaly": 0.9332,
        "meta_ephemeris_type": 0,
        "meta_classification_type": "U",
        "meta_norad_cat_id": 40267,
        "meta_element_set_no": 999,
        "meta_rev_at_epoch": 4088,
        "meta_bstar": 0,
        "meta_mean_motion_dot": -2.66e-06,
        "meta_mean_motion_ddot": 0,
        "tle_line1": "1 40267U 14060A   25346.23285885 -.00000266  00000+0  00000+0 0  9994",
        "tle_line2": "2 40267   0.0353 190.2834 0001210 114.4453   0.9332  1.00270039 40884"
      },
      "geometry": {
        "type": "Point",
        "coordinates": [
          146.79915059716282,
          -0.018046565447697248
        ]
      }
    },
    {
      "type": "Feature",
      "properties": {
        "norad_id": 40367,
        "name": "FENGYUN 2G",
        "group": "weather",
        "lat": 2.643398556614626,
        "lon": 105.57668901434874,
        "alt_km": 35800.784319857376,
        "timestamp": "2025-12-12T18:57:43.774898+00:00",
        "meta_object_name": "FENGYUN 2G",
        "meta_object_id": "2014-090A",
        "meta_epoch": "2025-12-11T19:07:12.834912",
        "meta_mean_motion": 1.00264403,
        "meta_eccentricity": 0.0003128,
        "meta_inclination": 5.1663,
        "meta_ra_of_asc_node": 75.1088,
        "meta_arg_of_pericenter": 196.7827,
        "meta_mean_anomaly": 195.2176,
        "meta_ephemeris_type": 0,
        "meta_classification_type": "U",
        "meta_norad_cat_id": 40367,
        "meta_element_set_no": 999,
        "meta_rev_at_epoch": 4012,
        "meta_bstar": 0,
        "meta_mean_motion_dot": -2.93e-06,
        "meta_mean_motion_ddot": 0,
        "tle_line1": "1 40367U 14090A   25345.79667633 -.00000293  00000+0  00000+0 0  9993",
        "tle_line2": "2 40367   5.1663  75.1088 0003128 196.7827 195.2176  1.00264403 40124"
      },
      "geometry": {
        "type": "Point",
        "coordinates": [
          105.57668901434874,
          2.643398556614626
        ]
      }
    },
    {
      "type": "Feature",
      "properties": {
        "norad_id": 40732,
        "name": "METEOSAT-11 (MSG-4)",
        "group": "weather",
        "lat": -2.271227713109391,
        "lon": 15.48118271857899,
        "alt_km": 35791.497763145664,
        "timestamp": "2025-12-12T18:57:43.774910+00:00",
        "meta_object_name": "METEOSAT-11 (MSG-4)",
        "meta_object_id": "2015-034A",
        "meta_epoch": "2025-12-12T03:15:08.325792",
        "meta_mean_motion": 1.00267302,
        "meta_eccentricity": 9.319e-05,
        "meta_inclination": 2.7339,
        "meta_ra_of_asc_node": 72.0034,
        "meta_arg_of_pericenter": 125.8403,
        "meta_mean_anomaly": 301.3279,
        "meta_ephemeris_type": 0,
        "meta_classification_type": "U",
        "meta_norad_cat_id": 40732,
        "meta_element_set_no": 999,
        "meta_rev_at_epoch": 534,
        "meta_bstar": 0,
        "meta_mean_motion_dot": 7e-07,
        "meta_mean_motion_ddot": 0,
        "tle_line1": "1 40732U 15034A   25346.13551303  .00000070  00000+0  00000+0 0  9995",
        "tle_line2": "2 40732   2.7339  72.0034 0000931 125.8403 301.3279  1.00267302  5342"
      },
      "geometry": {
        "type": "Point",
        "coordinates": [
          15.48118271857899,
          -2.271227713109391
        ]
      }
    },
    {
      "type": "Feature",
      "properties": {
        "norad_id": 41105,
        "name": "ELEKTRO-L 2",
        "group": "weather",
        "lat": -6.150430950137213,
        "lon": -8.236562212093792,
        "alt_km": 35783.1228207066,
        "timestamp": "2025-12-12T18:57:43.774922+00:00",
        "meta_object_name": "ELEKTRO-L 2",
        "meta_object_id": "2015-074A",
        "meta_epoch": "2025-12-12T01:25:33.819744",
        "meta_mean_motion": 1.00272344,
        "meta_eccentricity": 0.00039179,
        "meta_inclination": 6.2245,
        "meta_ra_of_asc_node": 72.8364,
        "meta_arg_of_pericenter": 201.6005,
        "meta_mean_anomaly": 173.4667,
        "meta_ephemeris_type": 0,
        "meta_classification_type": "U",
        "meta_norad_cat_id": 41105,
        "meta_element_set_no": 999,
        "meta_rev_at_epoch": 3663,
        "meta_bstar": 0,
        "meta_mean_motion_dot": -1.09e-06,
        "meta_mean_motion_ddot": 0,
        "tle_line1": "1 41105U 15074A   25346.05941921 -.00000109  00000+0  00000+0 0  9998",
        "tle_line2": "2 41105   6.2245  72.8364 0003917 201.6005 173.4667  1.00272344 36631"
      },
      "geometry": {
        "type": "Point",
        "coordinates": [
          -8.236562212093792,
          -6.150430950137213
        ]
      }
    },
    {
      "type": "Feature",
      "properties": {
        "norad_id": 41752,
        "name": "INSAT-3DR",
        "group": "weather",
        "lat": 0.00936265082522095,
        "lon": 80.18343785975446,
        "alt_km": 35846.226407365015,
        "timestamp": "2025-12-12T18:57:43.774933+00:00",
        "meta_object_name": "INSAT-3DR",
        "meta_object_id": "2016-054A",
        "meta_epoch": "2025-12-12T03:33:36.557856",
        "meta_mean_motion": 1.00270808,
        "meta_eccentricity": 0.00143869,
        "meta_inclination": 0.0904,
        "meta_ra_of_asc_node": 86.6512,
        "meta_arg_of_pericenter": 184.0199,
        "meta_mean_anomaly": 297.8282,
        "meta_ephemeris_type": 0,
        "meta_classification_type": "U",
        "meta_norad_cat_id": 41752,
        "meta_element_set_no": 999,
        "meta_rev_at_epoch": 3394,
        "meta_bstar": 0,
        "meta_mean_motion_dot": -6.7e-07,
        "meta_mean_motion_ddot": 0,
        "tle_line1": "1 41752U 16054A   25346.14833979 -.00000067  00000+0  00000+0 0  9991",
        "tle_line2": "2 41752   0.0904  86.6512 0014386 184.0199 297.8282  1.00270808 33949"
      },
      "geometry": {
        "type": "Point",
        "coordinates": [
          80.18343785975446,
          0.00936265082522095
        ]
      }
    },
    {
      "type": "Feature",
      "properties": {
        "norad_id": 41836,
        "name": "HIMAWARI-9",
        "group": "weather",
        "lat": 0.027116101337561326,
        "lon": 146.92959437947903,
        "alt_km": 35788.33268543967,
        "timestamp": "2025-12-12T18:57:43.774946+00:00",
        "meta_object_name": "HIMAWARI-9",
        "meta_object_id": "2016-064A",
        "meta_epoch": "2025-12-11T21:01:46.862112",
        "meta_mean_motion": 1.00273832,
        "meta_eccentricity": 0.0001213,
        "meta_inclination": 0.0342,
        "meta_ra_of_asc_node": 93.1676,
        "meta_arg_of_pericenter": 175.9777,
        "meta_mean_anomaly": 267.9081,
        "meta_ephemeris_type": 0,
        "meta_classification_type": "U",
        "meta_norad_cat_id": 41836,
        "meta_element_set_no": 999,
        "meta_rev_at_epoch": 3333,
        "meta_bstar": 0,
        "meta_mean_motion_dot": -2.66e-06,
        "meta_mean_motion_ddot": 0,
        "tle_line1": "1 41836U 16064A   25345.87623683 -.00000266  00000+0  00000+0 0  9994",
        "tle_line2": "2 41836   0.0342  93.1676 0001213 175.9777 267.9081  1.00273832 33336"
      },
      "geometry": {
        "type": "Point",
        "coordinates": [
          146.92959437947903,
          0.027116101337561326
        ]
      }
    }
  ]
}